[Satellite]
VERSION=1.1
NAME=MICRO LABSAT
NICKNAME=MICRO LABSAT
TLE1=1 27600U 02056D   11060.15134875  .00000030  00000-0  28042-4 0  2884
TLE2=2 27600  98.3036 100.6222 0010397 208.7808 151.2839 14.28916979428269
